STARLINK-31982          
1 60022U 24111G   26068.39675336 -.00001912  00000+0 -52451-4 0  9998
2 60022  53.1610  76.6335 0001312 104.9475 255.1672 15.30197424 99007
TEVEL2-2                
1 63219U 25052K   26068.64848259  .00020339  00000+0  69428-3 0  9991
2 63219  97.3987 324.7700 0004693 105.7930 254.3828 15.30343745 54855
